1 10000U 00000A   05004.86733796  0.00000000  00000-0 2.43588e-03 0  00000
2 10000  11.1600 337.3100 0102000 192.3100 -108.2645  1.01416678 00000 0
1 10001U 00001A   05004.86762731  0.00000000  00000-0 5.82931e-03 0  00011
2 10001  11.0000 334.9600 0041000  23.7100  60.9881  1.03182109 00001 1
1 10002U 00002A   05004.86835648  0.00000000  00000-0 1.47556e-03 0  00022
2 10002  11.3900 339.2000 0111000 254.6300 -174.0295  1.10456459 00002 2
1 10003U 00003A   05004.86332176  0.00000000  00000-0 5.68956e-04 0  00033
2 10003  11.4300 339.5400 0123000 214.9800 -133.0915  1.00784173 00003 3
1 10004U 00004A   05004.86403935  0.00000000  00000-0 8.15204e-03 0  00044
2 10004  12.2400 346.5500 0459000 258.2400 175.6858  0.97064900 00004 4
1 10005U 00005A   05004.86476852  0.00000000  00000-0 1.58108e-03 0  00055
2 10005  11.6700 342.5800 0522000 262.0900 175.9316  0.98412659 00005 5
1 10006U 00006A   05004.87481481  0.00000000  00000-0 8.40194e-03 0  00066
2 10006  11.9800 340.8500 0561000 353.7700  78.8493  1.09168566 00006 6
1 10007U 00007A   05004.87552083  0.00000000  00000-0 5.93722e-04 0  00077
2 10007  11.9200 335.5600 0305000  63.9100  19.0469  1.07570381 00007 7
1 10008U 00008A   05004.86863426  0.00000000  00000-0 1.59038e-03 0  00088
2 10008  12.0000 346.8900 0282000 347.7300  81.8369  1.05424104 00008 8
1 10009U 00009A   05004.86907407  0.00000000  00000-0 1.10612e-02 0  00099
2 10009  66.7200  50.8800 6243000 149.4100 -63.1970  2.16968142 00009 9
1 10010U 00010A   05004.86978009  0.00000000  00000-0 9.16389e-04 0  001010
2 10010  10.9800 336.0400 0114000 185.1400 -99.7558  1.01446131 00010 10
1 10011U 00011A   05004.87050926  0.00000000  00000-0 1.98953e-03 0  001111
2 10011  11.3800 339.2700 0127000 241.8100 -160.0815  1.00716576 00011 11
1 10012U 00012A   05004.86476852  0.00000000  00000-0 1.60820e-03 0  001212
2 10012  11.3700 340.6000 0259000 220.7700 -138.7396  0.98607990 00012 12
1 10013U 00013A   05004.86547454  0.00000000  00000-0 1.19973e-03 0  001313
2 10013  11.5100 339.5100 0127000 215.0100 -132.6816  1.01437403 00013 13
1 10014U 00014A   05004.8662037  0.00000000  00000-0 1.25446e-02 0  001414
2 10014  73.6200 221.7600 0050000  27.9500 125.9881 12.43319438 00014 14
1 10015U 00015A   05004.87034722  0.00000000  00000-0 5.50646e-03 0  001515
2 10015  10.9000 335.9700 0395000 298.5300 142.9044  1.00555799 00015 15
1 10016U 00016A   05004.87050926  0.00000000  00000-0 5.82670e-03 0  001616
2 10016  11.3300 336.3700 0242000 106.0600 -21.1982  1.05072395 00016 16
1 10017U 00017A   05004.87121528  0.00000000  00000-0 1.32256e-02 0  001717
2 10017  65.8500 227.5800 0792000 287.0600 -126.9294 13.08372048 00017 17
1 10018U 00018A   05004.87193287  0.00000000  00000-0 1.05545e-03 0  001818
2 10018  11.0300 339.0900 0261000 271.6400 168.9022  1.01528930 00018 18
1 10019U 00019A   05004.86733796  0.00000000  00000-0 1.60093e-03 0  001919
2 10019  11.1900 332.8600 0110000  42.2000  43.8185  1.04207885 00019 19
1 10020U 00020A   05004.86762731  0.00000000  00000-0 3.83994e-04 0  002020
2 10020  66.7200  50.8800 6243000 149.4100 -62.2119  2.16968142 00020 20
1 10021U 00021A   05004.86835648  0.00000000  00000-0 2.89925e-03 0  002121
2 10021  14.2700   3.5000 0015000  34.6800  22.9828  1.00435854 00021 21
1 10022U 00022A   05004.86907407  0.00000000  00000-0 4.59756e-03 0  002222
2 10022  15.8500  12.6800 1321000 325.4600  68.1500  0.89266222 00022 22
1 10023U 00023A   05004.87408565  0.00000000  00000-0 6.49073e-03 0  002323
2 10023  14.4600   3.6100 0007000  62.6600  -5.5123  1.00343641 00023 23
1 10024U 00024A   05004.87481481  0.00000000  00000-0 1.23497e-03 0  002424
2 10024  12.2400 342.9400 0396000 139.9500 -58.6168  1.02116839 00024 24
1 10025U 00025A   05004.87552083  0.00000000  00000-0 3.19734e-03 0  002525
2 10025  12.1200 348.2700 0618000 211.9500 -134.1547  0.93033591 00025 25
1 10026U 00026A   05004.87105324  0.00000000  00000-0 2.46896e-03 0  002626
2 10026  70.9900  19.4900 0137000 132.1100 -103.1172 13.97932602 00026 26
1 10027U 00027A   05004.87121528  0.00000000  00000-0 3.70412e-03 0  002727
2 10027  11.5400 342.2300 0451000 251.5100 -172.4795  0.97665393 00027 27
1 10028U 00028A   05004.87193287  0.00000000  00000-0 3.42399e-03 0  002828
2 10028  11.3200 339.5300 0189000 239.6800 -157.6646  0.99738135 00028 28
1 10029U 00029A   05004.87193287  0.00000000  00000-0 2.27591e-03 0  002929
2 10029  11.1600 337.3100 0102000 192.3100 -108.4558  1.01416678 00029 29
1 10030U 00030A   05004.87266204  0.00000000  00000-0 6.16578e-03 0  003030
2 10030  11.0200 335.8100 0045000 191.2700 -105.8046  1.02130814 00030 30
1 10031U 00031A   05004.87336806  0.00000000  00000-0 3.03806e-03 0  003131
2 10031  11.2400 335.1100 0158000  38.2600  45.3930  1.04967784 00031 31
1 10032U 00032A   05005.81546296  0.00000000  00000-0 1.39909e-03 0  003232
2 10032  11.1800 336.2000 0060000 355.8500  86.6733  1.03123397 00032 32
1 10033U 00033A   05005.81618056  0.00000000  00000-0 1.00603e-02 0  003333
2 10033  11.3200 337.8800 0114000 215.0300 -131.2470  1.00808101 00033 33
1 10034U 00034A   05005.81688657  0.00000000  00000-0 7.57384e-04 0  003434
2 10034  10.9400 334.5100 0089000 290.7000 154.2513  1.01826697 00034 34
1 10035U 00035A   05005.81612269  0.00000000  00000-0 5.75186e-03 0  003535
2 10035  11.7200 327.8200 0017000 177.7000 -85.1159  1.00191335 00035 35
1 10036U 00036A   05005.81618056  0.00000000  00000-0 2.68761e-04 0  003636
2 10036  11.5400 342.2300 0451000 251.5100 -172.4686  0.97665393 00036 36
1 10037U 00037A   05005.81688657  0.00000000  00000-0 1.11011e-03 0  003737
2 10037  11.7900 342.7400 0270000 260.2100 177.6471  0.99200330 00037 37
1 10038U 00038A   05005.81761574  0.00000000  00000-0 7.48395e-03 0  003838
2 10038  12.0400 345.1500 0346000 191.6800 -112.0153  0.97891490 00038 38
1 10039U 00039A   05005.81831019  0.00000000  00000-0 3.30463e-03 0  003939
2 10039  14.3900   4.1300 0944000  87.6100 -25.7686  1.13349336 00039 39
1 10040U 00040A   05005.81833333  0.00000000  00000-0 4.23891e-03 0  004040
2 10040  64.8100  45.2900 1332000  95.5500 -55.7236 10.47825840 00040 40
1 10041U 00041A   05005.81903935  0.00000000  00000-0 3.11115e-03 0  004141
2 10041  90.3100 238.2300 0050000  10.5200 144.6099 12.89813753 00041 41
1 10042U 00042A   05005.81976852  0.00000000  00000-0 1.42759e-02 0  004242
2 10042  11.5300 335.9200 0061000 150.6500 -65.8303  1.02545551 00042 42
1 10043U 00043A   05005.82047454  0.00000000  00000-0 1.59337e-03 0  004343
2 10043  11.9300 344.8500 0391000 203.7100 -124.3527  0.97342981 00043 43
1 10044U 00044A   05005.82103009  0.00000000  00000-0 1.31154e-03 0  004444
2 10044  64.8100  45.2900 1332000  95.5500 -55.6348 10.47825840 00044 44
1 10045U 00045A   05005.82119213  0.00000000  00000-0 1.81391e-02 0  004545
2 10045  90.3100 238.2300 0050000  10.5200 144.4788 12.89813753 00045 45
1 10046U 00046A   05005.8219213  0.00000000  00000-0 4.40068e-04 0  004646
2 10046  11.5100 339.6100 0129000 278.8200 161.1393  1.01311346 00046 46
1 10047U 00047A   05005.82262731  0.00000000  00000-0 1.78872e-04 0  004747
2 10047  14.9700  12.9100 0132000 197.0000 -147.8563  0.96671226 00047 47
1 10048U 00048A   05005.82975694  0.00000000  00000-0 6.12671e-03 0  004848
2 10048  11.5100 339.5100 0127000 215.0100 -133.3227  1.01437403 00048 48
1 10049U 00049A   05005.82981481  0.00000000  00000-0 6.76567e-03 0  004949
2 10049  11.6500 345.1400 0238000  31.4300  41.7047  1.04916985 00049 49
1 10050U 00050A   05005.83052083  0.00000000  00000-0 3.53630e-04 0  005050
2 10050  11.1900 338.1500 0141000 238.2100 -154.7106  1.00458393 00050 50
1 10051U 00051A   05005.81143519  0.00000000  00000-0 4.95295e-03 0  005151
2 10051  10.9800 336.9900 0186000 204.4200 -119.5369  1.00009928 00051 51
1 10052U 00052A   05005.811875  0.00000000  00000-0 6.65772e-04 0  005252
2 10052  10.9300 336.1400 0377000 269.6600 174.2356  1.01461045 00052 52
1 10053U 00053A   05005.81258102  0.00000000  00000-0 2.47519e-03 0  005353
2 10053  11.1600 335.4700 0708000 194.5400 -101.9703  1.10926278 00053 53
1 10054U 00054A   05005.81329861  0.00000000  00000-0 5.11447e-04 0  005454
2 10054  11.2100 338.7600 0204000 256.1600 -174.1684  1.00787483 00054 54
1 10055U 00055A   05005.82981481  0.00000000  00000-0 4.64787e-04 0  005555
2 10055  11.7400 339.5600 0104000 120.1200 -38.8252  1.03178704 00055 55
1 10056U 00056A   05005.83052083  0.00000000  00000-0 3.98903e-03 0  005656
2 10056  11.3100 329.4000 0404000  67.4100  20.6100  1.09035944 00056 56
1 10057U 00057A   05005.82622685  0.00000000  00000-0 1.85268e-03 0  005757
2 10057  14.2700   3.5000 0015000  34.6800  22.7434  1.00435854 00057 57
1 10058U 00058A   05005.82693287  0.00000000  00000-0 1.63648e-03 0  005858
2 10058  11.9100 332.6800 0564000 359.8700  80.2866  1.09192409 00058 58
1 10059U 00059A   05005.82766204  0.00000000  00000-0 6.60970e-04 0  005959
2 10059  16.7300  19.5900 0609000 204.0700 -159.0740  0.90576580 00059 59
1 10060U 00060A   05005.82550926  0.00000000  00000-0 4.35329e-03 0  006060
2 10060  11.9100 344.8600 0354000 213.6400 -135.0840  0.97176176 00060 60
1 10061U 00061A   05005.82622685  0.00000000  00000-0 3.09331e-03 0  006161
2 10061  11.8900 339.7200 0202000 260.4800 -179.8438  1.02464066 00061 61
1 10062U 00062A   05005.82693287  0.00000000  00000-0 2.31536e-03 0  006262
2 10062  11.0700 335.1800 0061000  85.0200  -0.0889  1.03490039 00062 62
1 10063U 00063A   05005.81258102  0.00000000  00000-0 2.89798e-03 0  006363
2 10063  11.1600 337.3100 0102000 192.3100 -108.4457  1.01416678 00063 63
1 10064U 00064A   05005.81329861  0.00000000  00000-0 4.57118e-03 0  006464
2 10064  11.0200 335.8100 0045000 191.2700 -106.1856  1.02130814 00064 64
1 10065U 00065A   05005.823125  0.00000000  00000-0 1.81423e-03 0  006565
2 10065  11.3200 337.2900 0050000 129.0100 -45.9166  1.02839230 00065 65
1 10066U 00066A   05005.82334491  0.00000000  00000-0 1.18023e-02 0  006666
2 10066  11.5400 345.8000 0362000  17.5400  53.2173  1.02998680 00066 66
